HELIOS 1B               
1 25977U 99064A   26111.62260075  .00000998  00000+0  11554-3 0  9991
2 25977  98.1654  15.1206 0000487  52.3054 307.8206 14.87848970691646
TERRA                   
1 25994U 99068A   26111.88245227  .00000268  00000+0  63679-4 0  9990
2 25994  97.9509 163.6478 0003396  64.8200 108.7425 14.61056863401389
SL-16 R/B               
1 26070U 00006B   26111.12060544  .00000060  00000+0  54462-4 0  9994
2 26070  71.0043   8.6186 0014694 121.1369 239.1197 14.15828472354565
TITAN 4B R/B            
1 26474U 00047B   26111.82501613  .00002211  00000+0  14186-3 0  9999
2 26474  67.9883 279.1798 0042059 345.9508  14.0468 15.09891789399420
ENVISAT                 
1 27386U 02009A   26111.85333293  .00000069  00000+0  36254-4 0  9992
2 27386  98.3793  64.4423 0001162  86.1335 299.5150 14.39050718265389
IDEFIX & ARIANE 42P R/B 
1 27422U 02021B   26111.84576491  .00000176  00000+0  83201-4 0  9998
2 27422  98.5916  49.9497 0012920  62.8059 297.4440 14.31053322250194
AQUA                    
1 27424U 02022A   26111.86344133  .00000565  00000+0  12232-3 0  9996
2 27424  98.4239  80.0387 0001959 100.4228 289.6943 14.62066589275049
CZ-4B R/B               
1 27432U 02024C   26111.88839523  .00000008  00000+0  26997-4 0  9997
2 27432  98.8753 165.0591 0049068 260.0505 273.7383 14.14554976235348
MIDORI II (ADEOS-II)    
1 27597U 02056A   26111.85612580  .00000208  00000+0  99527-4 0  9994
2 27597  98.7837  70.6527 0000595 147.1262 212.9957 14.29315918216460
H-2A R/B                
1 27601U 02056E   26111.83516661  .00000241  00000+0  98994-4 0  9995
2 27601  98.3271  70.5784 0070971  33.9310  27.0722 14.33790285220299
CZ-4B R/B               
1 28059U 03049C   26111.70673138  .00000249  00000+0  68535-4 0  9991
2 28059  98.6900 108.3099 0049327 100.2034 260.4730 14.55056464192850
CZ-2C R/B               
1 28222U 04012C   26111.64412089  .00060442  00000+0  50347-3 0  9995
2 28222  97.7130 181.1663 0013950 149.8908 210.3158 15.69800687211002
SL-16 R/B               
1 28353U 04021B   26111.80376032 -.00000168  00000+0 -62605-4 0  9997
2 28353  70.9993 142.0178 0006724 314.0233  46.0335 14.14605351128932
CZ-4B R/B               
1 28415U 04035C   26111.63217045  .00006371  00000+0  22033-3 0  9990
2 28415  97.3426 145.3654 0031958 172.9308 187.2390 15.29757618186474
CZ-2C R/B               
1 28480U 04046B   26111.67792282  .00000119  00000+0  59173-4 0  9999
2 28480  98.1969  23.9822 0140063  28.2171 332.6510 14.27008607114637
ARIANE 5 R/B            
1 28499U 04049H   26111.74745309  .00000616  00000+0  74437-4 0  9990
2 28499  98.2684 281.8346 0083413 210.7738 148.8571 14.85345207152180
CZ-2D R/B               
1 28738U 05024B   26111.62708061  .00039129  00000+0  41462-3 0  9993
2 28738  97.3547 128.4710 0004127 181.6567 178.4679 15.64020507146481
