[{"OBJECT_NAME":"HELIOS 1B","OBJECT_ID":"1999-064A","EPOCH":"2026-04-21T14:56:32.704800","MEAN_MOTION":14.8784897,"ECCENTRICITY":4.87e-5,"INCLINATION":98.1654,"RA_OF_ASC_NODE":15.1206,"ARG_OF_PERICENTER":52.3054,"MEAN_ANOMALY":307.8206,"EPHEMERIS_TYPE":0,"CLASSIFICATION_TYPE":"U","NORAD_CAT_ID":25977,"ELEMENT_SET_NO":999,"REV_AT_EPOCH":69164,"BSTAR":0.00011554,"MEAN_MOTION_DOT":9.98e-6,"MEAN_MOTION_DDOT":0},{"OBJECT_NAME":"TERRA","OBJECT_ID":"1999-068A","EPOCH":"2026-04-21T21:10:43.876128","MEAN_MOTION":14.61056863,"ECCENTRICITY":0.0003396,"INCLINATION":97.9509,"RA_OF_ASC_NODE":163.6478,"ARG_OF_PERICENTER":64.82,"MEAN_ANOMALY":108.7425,"EPHEMERIS_TYPE":0,"CLASSIFICATION_TYPE":"U","NORAD_CAT_ID":25994,"ELEMENT_SET_NO":999,"REV_AT_EPOCH":40138,"BSTAR":6.3679e-5,"MEAN_MOTION_DOT":2.68e-6,"MEAN_MOTION_DDOT":0},{"OBJECT_NAME":"SL-16 R/B","OBJECT_ID":"2000-006B","EPOCH":"2026-04-21T02:53:40.310016","MEAN_MOTION":14.15828472,"ECCENTRICITY":0.00146941,"INCLINATION":71.0043,"RA_OF_ASC_NODE":8.6186,"ARG_OF_PERICENTER":121.1369,"MEAN_ANOMALY":239.1197,"EPHEMERIS_TYPE":0,"CLASSIFICATION_TYPE":"U","NORAD_CAT_ID":26070,"ELEMENT_SET_NO":999,"REV_AT_EPOCH":35456,"BSTAR":5.4462349e-5,"MEAN_MOTION_DOT":6.0e-7,"MEAN_MOTION_DDOT":0},{"OBJECT_NAME":"TITAN 4B R/B","OBJECT_ID":"2000-047B","EPOCH":"2026-04-21T19:48:01.393632","MEAN_MOTION":15.09891789,"ECCENTRICITY":0.0042059,"INCLINATION":67.9883,"RA_OF_ASC_NODE":279.1798,"ARG_OF_PERICENTER":345.9508,"MEAN_ANOMALY":14.0468,"EPHEMERIS_TYPE":0,"CLASSIFICATION_TYPE":"U","NORAD_CAT_ID":26474,"ELEMENT_SET_NO":999,"REV_AT_EPOCH":39942,"BSTAR":0.00014186,"MEAN_MOTION_DOT":2.211e-5,"MEAN_MOTION_DDOT":0},{"OBJECT_NAME":"ENVISAT","OBJECT_ID":"2002-009A","EPOCH":"2026-04-21T20:28:47.965152","MEAN_MOTION":14.39050718,"ECCENTRICITY":0.0001162,"INCLINATION":98.3793,"RA_OF_ASC_NODE":64.4423,"ARG_OF_PERICENTER":86.1335,"MEAN_ANOMALY":299.515,"EPHEMERIS_TYPE":0,"CLASSIFICATION_TYPE":"U","NORAD_CAT_ID":27386,"ELEMENT_SET_NO":999,"REV_AT_EPOCH":26538,"BSTAR":3.6254e-5,"MEAN_MOTION_DOT":6.9e-7,"MEAN_MOTION_DDOT":0},{"OBJECT_NAME":"IDEFIX & ARIANE 42P R/B","OBJECT_ID":"2002-021B","EPOCH":"2026-04-21T20:17:54.088224","MEAN_MOTION":14.31053322,"ECCENTRICITY":0.001292,"INCLINATION":98.5916,"RA_OF_ASC_NODE":49.9497,"ARG_OF_PERICENTER":62.8059,"MEAN_ANOMALY":297.444,"EPHEMERIS_TYPE":0,"CLASSIFICATION_TYPE":"U","NORAD_CAT_ID":27422,"ELEMENT_SET_NO":999,"REV_AT_EPOCH":25019,"BSTAR":8.3201e-5,"MEAN_MOTION_DOT":1.76e-6,"MEAN_MOTION_DDOT":0},{"OBJECT_NAME":"AQUA","OBJECT_ID":"2002-022A","EPOCH":"2026-04-21T20:43:21.330912","MEAN_MOTION":14.62066589,"ECCENTRICITY":0.0001959,"INCLINATION":98.4239,"RA_OF_ASC_NODE":80.0387,"ARG_OF_PERICENTER":100.4228,"MEAN_ANOMALY":289.6943,"EPHEMERIS_TYPE":0,"CLASSIFICATION_TYPE":"U","NORAD_CAT_ID":27424,"ELEMENT_SET_NO":999,"REV_AT_EPOCH":27504,"BSTAR":0.00012232,"MEAN_MOTION_DOT":5.65e-6,"MEAN_MOTION_DDOT":0},{"OBJECT_NAME":"CZ-4B R/B","OBJECT_ID":"2002-024C","EPOCH":"2026-04-21T21:19:17.347872","MEAN_MOTION":14.14554976,"ECCENTRICITY":0.0049068,"INCLINATION":98.8753,"RA_OF_ASC_NODE":165.0591,"ARG_OF_PERICENTER":260.0505,"MEAN_ANOMALY":273.7383,"EPHEMERIS_TYPE":0,"CLASSIFICATION_TYPE":"U","NORAD_CAT_ID":27432,"ELEMENT_SET_NO":999,"REV_AT_EPOCH":23534,"BSTAR":2.6997e-5,"MEAN_MOTION_DOT":8.0e-8,"MEAN_MOTION_DDOT":0},{"OBJECT_NAME":"MIDORI II (ADEOS-II)","OBJECT_ID":"2002-056A","EPOCH":"2026-04-21T20:32:49.269120","MEAN_MOTION":14.29315918,"ECCENTRICITY":5.95e-5,"INCLINATION":98.7837,"RA_OF_ASC_NODE":70.6527,"ARG_OF_PERICENTER":147.1262,"MEAN_ANOMALY":212.9957,"EPHEMERIS_TYPE":0,"CLASSIFICATION_TYPE":"U","NORAD_CAT_ID":27597,"ELEMENT_SET_NO":999,"REV_AT_EPOCH":21646,"BSTAR":9.9527e-5,"MEAN_MOTION_DOT":2.08e-6,"MEAN_MOTION_DDOT":0},{"OBJECT_NAME":"H-2A R/B","OBJECT_ID":"2002-056E","EPOCH":"2026-04-21T20:02:38.395104","MEAN_MOTION":14.33790285,"ECCENTRICITY":0.0070971,"INCLINATION":98.3271,"RA_OF_ASC_NODE":70.5784,"ARG_OF_PERICENTER":33.931,"MEAN_ANOMALY":27.0722,"EPHEMERIS_TYPE":0,"CLASSIFICATION_TYPE":"U","NORAD_CAT_ID":27601,"ELEMENT_SET_NO":999,"REV_AT_EPOCH":22029,"BSTAR":9.8994e-5,"MEAN_MOTION_DOT":2.41e-6,"MEAN_MOTION_DDOT":0},{"OBJECT_NAME":"CZ-4B R/B","OBJECT_ID":"2003-049C","EPOCH":"2026-04-21T16:57:41.591232","MEAN_MOTION":14.55056464,"ECCENTRICITY":0.0049327,"INCLINATION":98.69,"RA_OF_ASC_NODE":108.3099,"ARG_OF_PERICENTER":100.2034,"MEAN_ANOMALY":260.473,"EPHEMERIS_TYPE":0,"CLASSIFICATION_TYPE":"U","NORAD_CAT_ID":28059,"ELEMENT_SET_NO":999,"REV_AT_EPOCH":19285,"BSTAR":6.8535e-5,"MEAN_MOTION_DOT":2.49e-6,"MEAN_MOTION_DDOT":0},{"OBJECT_NAME":"CZ-2C R/B","OBJECT_ID":"2004-012C","EPOCH":"2026-04-21T15:27:32.044896","MEAN_MOTION":15.69800687,"ECCENTRICITY":0.001395,"INCLINATION":97.713,"RA_OF_ASC_NODE":181.1663,"ARG_OF_PERICENTER":149.8908,"MEAN_ANOMALY":210.3158,"EPHEMERIS_TYPE":0,"CLASSIFICATION_TYPE":"U","NORAD_CAT_ID":28222,"ELEMENT_SET_NO":999,"REV_AT_EPOCH":21100,"BSTAR":0.00050347,"MEAN_MOTION_DOT":0.00060442,"MEAN_MOTION_DDOT":0},{"OBJECT_NAME":"SL-16 R/B","OBJECT_ID":"2004-021B","EPOCH":"2026-04-21T19:17:24.891648","MEAN_MOTION":14.14605351,"ECCENTRICITY":0.0006724,"INCLINATION":70.9993,"RA_OF_ASC_NODE":142.0178,"ARG_OF_PERICENTER":314.0233,"MEAN_ANOMALY":46.0335,"EPHEMERIS_TYPE":0,"CLASSIFICATION_TYPE":"U","NORAD_CAT_ID":28353,"ELEMENT_SET_NO":999,"REV_AT_EPOCH":12893,"BSTAR":-6.2605e-5,"MEAN_MOTION_DOT":-1.68e-6,"MEAN_MOTION_DDOT":0},{"OBJECT_NAME":"CZ-4B R/B","OBJECT_ID":"2004-035C","EPOCH":"2026-04-21T15:10:19.526880","MEAN_MOTION":15.29757618,"ECCENTRICITY":0.0031958,"INCLINATION":97.3426,"RA_OF_ASC_NODE":145.3654,"ARG_OF_PERICENTER":172.9308,"MEAN_ANOMALY":187.239,"EPHEMERIS_TYPE":0,"CLASSIFICATION_TYPE":"U","NORAD_CAT_ID":28415,"ELEMENT_SET_NO":999,"REV_AT_EPOCH":18647,"BSTAR":0.00022033,"MEAN_MOTION_DOT":6.371e-5,"MEAN_MOTION_DDOT":0},{"OBJECT_NAME":"CZ-2C R/B","OBJECT_ID":"2004-046B","EPOCH":"2026-04-21T16:16:12.531648","MEAN_MOTION":14.27008607,"ECCENTRICITY":0.0140063,"INCLINATION":98.1969,"RA_OF_ASC_NODE":23.9822,"ARG_OF_PERICENTER":28.2171,"MEAN_ANOMALY":332.651,"EPHEMERIS_TYPE":0,"CLASSIFICATION_TYPE":"U","NORAD_CAT_ID":28480,"ELEMENT_SET_NO":999,"REV_AT_EPOCH":11463,"BSTAR":5.9173e-5,"MEAN_MOTION_DOT":1.19e-6,"MEAN_MOTION_DDOT":0},{"OBJECT_NAME":"ARIANE 5 R/B","OBJECT_ID":"2004-049H","EPOCH":"2026-04-21T17:56:19.946976","MEAN_MOTION":14.85345207,"ECCENTRICITY":0.0083413,"INCLINATION":98.2684,"RA_OF_ASC_NODE":281.8346,"ARG_OF_PERICENTER":210.7738,"MEAN_ANOMALY":148.8571,"EPHEMERIS_TYPE":0,"CLASSIFICATION_TYPE":"U","NORAD_CAT_ID":28499,"ELEMENT_SET_NO":999,"REV_AT_EPOCH":15218,"BSTAR":7.4437e-5,"MEAN_MOTION_DOT":6.16e-6,"MEAN_MOTION_DDOT":0},{"OBJECT_NAME":"CZ-2D R/B","OBJECT_ID":"2005-024B","EPOCH":"2026-04-21T15:02:59.764704","MEAN_MOTION":15.64020507,"ECCENTRICITY":0.0004127,"INCLINATION":97.3547,"RA_OF_ASC_NODE":128.471,"ARG_OF_PERICENTER":181.6567,"MEAN_ANOMALY":178.4679,"EPHEMERIS_TYPE":0,"CLASSIFICATION_TYPE":"U","NORAD_CAT_ID":28738,"ELEMENT_SET_NO":999,"REV_AT_EPOCH":14648,"BSTAR":0.00041462,"MEAN_MOTION_DOT":0.00039129,"MEAN_MOTION_DDOT":0}]
